CCSDS_OMM_VERS = 2.0
CREATION_DATE  = 
ORIGINATOR     = 

OBJECT_NAME    = STARLINK-1616
OBJECT_ID      = 2020-057AH
CENTER_NAME    = EARTH
REF_FRAME      = TEME
TIME_SYSTEM    = UTC
MEAN_ELEMENT_THEORY = SGP/SGP4

EPOCH          = 2020-09-09T06:00:00.999648
MEAN_MOTION    = 15.66272309
ECCENTRICITY   = .0001175
INCLINATION    = 53.0006
RA_OF_ASC_NODE = 333.6379
ARG_OF_PERICENTER = 61.3229
MEAN_ANOMALY   = 238.6405

EPHEMERIS_TYPE = 0
CLASSIFICATION_TYPE = U
NORAD_CAT_ID   = 46148
ELEMENT_SET_NO = 999
REV_AT_EPOCH   = 182
BSTAR          = .22575E-3
MEAN_MOTION_DOT = 2.3274E-4
MEAN_MOTION_DDOT = 0

CCSDS_OMM_VERS = 2.0
CREATION_DATE  = 
ORIGINATOR     = 

OBJECT_NAME    = STARLINK-1620
OBJECT_ID      = 2020-057AJ
CENTER_NAME    = EARTH
REF_FRAME      = TEME
TIME_SYSTEM    = UTC
MEAN_ELEMENT_THEORY = SGP/SGP4

EPOCH          = 2020-09-09T12:00:00.999648
MEAN_MOTION    = 15.65164530
ECCENTRICITY   = .0001856
INCLINATION    = 52.9986
RA_OF_ASC_NODE = 332.3604
ARG_OF_PERICENTER = 25.9357
MEAN_ANOMALY   = 272.3316

EPHEMERIS_TYPE = 0
CLASSIFICATION_TYPE = U
NORAD_CAT_ID   = 46149
ELEMENT_SET_NO = 999
REV_AT_EPOCH   = 412
BSTAR          = .45485E-1
MEAN_MOTION_DOT = 5.336729E-2
MEAN_MOTION_DDOT = 0

CCSDS_OMM_VERS = 2.0
CREATION_DATE  = 
ORIGINATOR     = 

OBJECT_NAME    = STARLINK-1629
OBJECT_ID      = 2020-057AK
CENTER_NAME    = EARTH
REF_FRAME      = TEME
TIME_SYSTEM    = UTC
MEAN_ELEMENT_THEORY = SGP/SGP4

EPOCH          = 2020-09-09T12:00:00.999648
MEAN_MOTION    = 15.62749410
ECCENTRICITY   = .0005674
INCLINATION    = 53.0012
RA_OF_ASC_NODE = 332.7271
ARG_OF_PERICENTER = 296.7255
MEAN_ANOMALY   = 179.9747

EPHEMERIS_TYPE = 0
CLASSIFICATION_TYPE = U
NORAD_CAT_ID   = 46150
ELEMENT_SET_NO = 999
REV_AT_EPOCH   = 412
BSTAR          = .20216E-4
MEAN_MOTION_DOT = 1.312E-5
MEAN_MOTION_DDOT = 0

CCSDS_OMM_VERS = 2.0
CREATION_DATE  = 
ORIGINATOR     = 

OBJECT_NAME    = STARLINK-1631
OBJECT_ID      = 2020-057AL
CENTER_NAME    = EARTH
REF_FRAME      = TEME
TIME_SYSTEM    = UTC
MEAN_ELEMENT_THEORY = SGP/SGP4

EPOCH          = 2020-09-09T12:00:00.999648
MEAN_MOTION    = 15.72344019
ECCENTRICITY   = .0002138
INCLINATION    = 52.9980
RA_OF_ASC_NODE = 331.4759
ARG_OF_PERICENTER = 63.7232
MEAN_ANOMALY   = 298.0291

EPHEMERIS_TYPE = 0
CLASSIFICATION_TYPE = U
NORAD_CAT_ID   = 46151
ELEMENT_SET_NO = 999
REV_AT_EPOCH   = 413
BSTAR          = .84388E-5
MEAN_MOTION_DOT = 5.28E-6
MEAN_MOTION_DDOT = 0

CCSDS_OMM_VERS = 2.0
CREATION_DATE  = 
ORIGINATOR     = 

OBJECT_NAME    = STARLINK-1634
OBJECT_ID      = 2020-057AM
CENTER_NAME    = EARTH
REF_FRAME      = TEME
TIME_SYSTEM    = UTC
MEAN_ELEMENT_THEORY = SGP/SGP4

EPOCH          = 2020-09-09T12:00:00.999648
MEAN_MOTION    = 15.62750069
ECCENTRICITY   = .0001360
INCLINATION    = 52.9986
RA_OF_ASC_NODE = 332.7534
ARG_OF_PERICENTER = 56.4442
MEAN_ANOMALY   = 48.8099

EPHEMERIS_TYPE = 0
CLASSIFICATION_TYPE = U
NORAD_CAT_ID   = 46152
ELEMENT_SET_NO = 999
REV_AT_EPOCH   = 412
BSTAR          = .85897E-5
MEAN_MOTION_DOT = 2.52E-6
MEAN_MOTION_DDOT = 0

CCSDS_OMM_VERS = 2.0
CREATION_DATE  = 
ORIGINATOR     = 

OBJECT_NAME    = STARLINK-1636
OBJECT_ID      = 2020-057AN
CENTER_NAME    = EARTH
REF_FRAME      = TEME
TIME_SYSTEM    = UTC
MEAN_ELEMENT_THEORY = SGP/SGP4

EPOCH          = 2020-09-09T12:00:00.999648
MEAN_MOTION    = 15.72215464
ECCENTRICITY   = .0001191
INCLINATION    = 52.9973
RA_OF_ASC_NODE = 331.5018
ARG_OF_PERICENTER = 77.4562
MEAN_ANOMALY   = 270.6503

EPHEMERIS_TYPE = 0
CLASSIFICATION_TYPE = U
NORAD_CAT_ID   = 46153
ELEMENT_SET_NO = 999
REV_AT_EPOCH   = 413
BSTAR          = -.27019E-4
MEAN_MOTION_DOT = -4.246E-5
MEAN_MOTION_DDOT = 0

CCSDS_OMM_VERS = 2.0
CREATION_DATE  = 
ORIGINATOR     = 

OBJECT_NAME    = STARLINK-1642
OBJECT_ID      = 2020-057AP
CENTER_NAME    = EARTH
REF_FRAME      = TEME
TIME_SYSTEM    = UTC
MEAN_ELEMENT_THEORY = SGP/SGP4

EPOCH          = 2020-09-09T12:00:00.999648
MEAN_MOTION    = 15.72221371
ECCENTRICITY   = .0000819
INCLINATION    = 52.9974
RA_OF_ASC_NODE = 331.4883
ARG_OF_PERICENTER = 47.3812
MEAN_ANOMALY   = 306.8853

EPHEMERIS_TYPE = 0
CLASSIFICATION_TYPE = U
NORAD_CAT_ID   = 46154
ELEMENT_SET_NO = 999
REV_AT_EPOCH   = 413
BSTAR          = -.28311E-4
MEAN_MOTION_DOT = -4.42E-5
MEAN_MOTION_DDOT = 0

CCSDS_OMM_VERS = 2.0
CREATION_DATE  = 
ORIGINATOR     = 

OBJECT_NAME    = STARLINK-1667
OBJECT_ID      = 2020-057AQ
CENTER_NAME    = EARTH
REF_FRAME      = TEME
TIME_SYSTEM    = UTC
MEAN_ELEMENT_THEORY = SGP/SGP4

EPOCH          = 2020-09-09T06:00:00.999648
MEAN_MOTION    = 15.66242588
ECCENTRICITY   = .0001149
INCLINATION    = 52.9990
RA_OF_ASC_NODE = 333.5630
ARG_OF_PERICENTER = 62.6904
MEAN_ANOMALY   = 274.4793

EPHEMERIS_TYPE = 0
CLASSIFICATION_TYPE = U
NORAD_CAT_ID   = 46155
ELEMENT_SET_NO = 999
REV_AT_EPOCH   = 177
BSTAR          = .21929E-3
MEAN_MOTION_DOT = 2.2563E-4
MEAN_MOTION_DDOT = 0

CCSDS_OMM_VERS = 2.0
CREATION_DATE  = 
ORIGINATOR     = 

OBJECT_NAME    = STARLINK-1545
OBJECT_ID      = 2020-057AR
CENTER_NAME    = EARTH
REF_FRAME      = TEME
TIME_SYSTEM    = UTC
MEAN_ELEMENT_THEORY = SGP/SGP4

EPOCH          = 2020-09-09T12:00:00.999648
MEAN_MOTION    = 15.66248654
ECCENTRICITY   = .0001489
INCLINATION    = 52.9997
RA_OF_ASC_NODE = 332.4080
ARG_OF_PERICENTER = 57.3913
MEAN_ANOMALY   = 217.3226

EPHEMERIS_TYPE = 0
CLASSIFICATION_TYPE = U
NORAD_CAT_ID   = 46156
ELEMENT_SET_NO = 999
REV_AT_EPOCH   = 412
BSTAR          = -.31299E-4
MEAN_MOTION_DOT = -3.852E-5
MEAN_MOTION_DDOT = 0

CCSDS_OMM_VERS = 2.0
CREATION_DATE  = 
ORIGINATOR     = 

OBJECT_NAME    = STARLINK-1587
OBJECT_ID      = 2020-057AS
CENTER_NAME    = EARTH
REF_FRAME      = TEME
TIME_SYSTEM    = UTC
MEAN_ELEMENT_THEORY = SGP/SGP4

EPOCH          = 2020-09-09T12:00:00.999648
MEAN_MOTION    = 15.66267678
ECCENTRICITY   = .0001329
INCLINATION    = 52.9993
RA_OF_ASC_NODE = 332.3375
ARG_OF_PERICENTER = 38.8440
MEAN_ANOMALY   = 269.8273

EPHEMERIS_TYPE = 0
CLASSIFICATION_TYPE = U
NORAD_CAT_ID   = 46157
ELEMENT_SET_NO = 999
REV_AT_EPOCH   = 412
BSTAR          = -.29138E-4
MEAN_MOTION_DOT = -3.627E-5
MEAN_MOTION_DDOT = 0

CCSDS_OMM_VERS = 2.0
CREATION_DATE  = 
ORIGINATOR     = 

OBJECT_NAME    = STARLINK-1589
OBJECT_ID      = 2020-057AT
CENTER_NAME    = EARTH
REF_FRAME      = TEME
TIME_SYSTEM    = UTC
MEAN_ELEMENT_THEORY = SGP/SGP4

EPOCH          = 2020-09-09T06:00:00.999648
MEAN_MOTION    = 15.62328449
ECCENTRICITY   = .0001517
INCLINATION    = 53.0013
RA_OF_ASC_NODE = 333.9926
ARG_OF_PERICENTER = 53.1982
MEAN_ANOMALY   = 90.6490

EPHEMERIS_TYPE = 0
CLASSIFICATION_TYPE = U
NORAD_CAT_ID   = 46158
ELEMENT_SET_NO = 999
REV_AT_EPOCH   = 177
BSTAR          = .15015E-2
MEAN_MOTION_DOT = 1.37001E-3
MEAN_MOTION_DDOT = 0

CCSDS_OMM_VERS = 2.0
CREATION_DATE  = 
ORIGINATOR     = 

OBJECT_NAME    = STARLINK-1595
OBJECT_ID      = 2020-057AU
CENTER_NAME    = EARTH
REF_FRAME      = TEME
TIME_SYSTEM    = UTC
MEAN_ELEMENT_THEORY = SGP/SGP4

EPOCH          = 2020-09-09T06:00:00.999648
MEAN_MOTION    = 15.61133711
ECCENTRICITY   = .0001078
INCLINATION    = 53.0028
RA_OF_ASC_NODE = 334.0188
ARG_OF_PERICENTER = 6.4343
MEAN_ANOMALY   = 122.7212

EPHEMERIS_TYPE = 0
CLASSIFICATION_TYPE = U
NORAD_CAT_ID   = 46159
ELEMENT_SET_NO = 999
REV_AT_EPOCH   = 177
BSTAR          = -.13840E-1
MEAN_MOTION_DOT = -1.081724E-2
MEAN_MOTION_DDOT = 0

